ONEWEB-0259             
1 48977U 21060L   26128.27558987  .00000082  00000+0  17972-3 0  9992
2 48977  87.9096 236.7072 0001754  99.9961 260.1368 13.16592686234375
ONEWEB-0260             
1 48978U 21060M   26128.26689822  .00000050  00000+0  96689-4 0  9993
2 48978  87.9088 236.7128 0002373 101.2274 258.9123 13.16595089234353
ONEWEB-0261             
1 48979U 21060N   26128.23681340  .00000047  00000+0  88801-4 0  9991
2 48979  87.9096 236.7173 0001996  91.6524 268.4835 13.16593676234405
ONEWEB-0262             
1 48980U 21060P   26128.29303038  .00000133  00000+0  31483-3 0  9993
2 48980  87.9097 236.6908 0001659 101.2603 258.8714 13.16595205234370
ONEWEB-0263             
1 48981U 21060Q   26128.24867630 -.00000039  00000+0 -13588-3 0  9995
2 48981  87.9096 236.7110 0001857  91.0141 269.1202 13.16595921234337
ONEWEB-0264             
1 48982U 21060R   26128.28588999  .00000134  00000+0  31648-3 0  9999
2 48982  87.9096 236.7075 0002103  97.0356 263.1014 13.16596014234347
ONEWEB-0266             
1 48984U 21060T   26128.23127448  .00000093  00000+0  20948-3 0  9999
2 48984  87.9098 236.7081 0001903 104.5423 255.5919 13.16596018234325
ONEWEB-0267             
1 48985U 21060U   26128.24234700 -.00000001  00000+0 -36508-4 0  9992
2 48985  87.9098 236.7020 0001975  95.1450 264.9907 13.16596167234330
ONEWEB-0268             
1 48986U 21060V   26128.28669452  .00000173  00000+0  41811-3 0  9993
2 48986  87.9099 236.7033 0002074 102.0132 258.1232 13.16594034234609
ONEWEB-0269             
1 48987U 21060W   26128.26769892  .00000077  00000+0  16740-3 0  9997
2 48987  87.9086 236.7142 0002108 105.8735 254.2629 13.16594980234376
ONEWEB-0270             
1 48988U 21060X   26128.28511526  .00000042  00000+0  75226-4 0  9996
2 48988  87.9100 236.7054 0001718  92.0427 268.0901 13.16595148234415
ONEWEB-0271             
1 48989U 21060Y   26128.27245023  .00000112  00000+0  25951-3 0  9999
2 48989  87.9096 236.6987 0001878  93.4724 266.6622 13.16595075234419
ONEWEB-0272             
1 48990U 21060Z   26128.29461052  .00000147  00000+0  35192-3 0  9991
2 48990  87.9098 236.7054 0002225  98.0568 262.0816 13.16594292234362
ONEWEB-0273             
1 48991U 21060AA  26128.24078544 -.00000003  00000+0 -41907-4 0  9992
2 48991  87.9100 236.7147 0001870  97.3062 262.8282 13.16595041234331
ONEWEB-0274             
1 48992U 21060AB  26128.26610725  .00000051  00000+0  98751-4 0  9998
2 48992  87.9085 236.7168 0002253  99.5737 260.5649 13.16594504234375
ONEWEB-0275             
1 48993U 21060AC  26128.25501318  .00000010  00000+0 -70374-5 0  9993
2 48993  87.9097 236.7039 0002018  99.0778 261.0581 13.16596068234306
