[{"OBJECT_NAME":"ONEWEB-0259","OBJECT_ID":"2021-060L","EPOCH":"2026-05-08T06:36:50.964768","MEAN_MOTION":13.16592686,"ECCENTRICITY":0.0001754,"INCLINATION":87.9096,"RA_OF_ASC_NODE":236.7072,"ARG_OF_PERICENTER":99.9961,"MEAN_ANOMALY":260.1368,"EPHEMERIS_TYPE":0,"CLASSIFICATION_TYPE":"U","NORAD_CAT_ID":48977,"ELEMENT_SET_NO":999,"REV_AT_EPOCH":23437,"BSTAR":0.00017972,"MEAN_MOTION_DOT":8.2e-07,"MEAN_MOTION_DDOT":0.0},{"OBJECT_NAME":"ONEWEB-0260","OBJECT_ID":"2021-060M","EPOCH":"2026-05-08T06:24:20.006208","MEAN_MOTION":13.16595089,"ECCENTRICITY":0.0002373,"INCLINATION":87.9088,"RA_OF_ASC_NODE":236.7128,"ARG_OF_PERICENTER":101.2274,"MEAN_ANOMALY":258.9123,"EPHEMERIS_TYPE":0,"CLASSIFICATION_TYPE":"U","NORAD_CAT_ID":48978,"ELEMENT_SET_NO":999,"REV_AT_EPOCH":23435,"BSTAR":9.668900000000001e-05,"MEAN_MOTION_DOT":5e-07,"MEAN_MOTION_DDOT":0.0},{"OBJECT_NAME":"ONEWEB-0261","OBJECT_ID":"2021-060N","EPOCH":"2026-05-08T05:41:00.677760","MEAN_MOTION":13.16593676,"ECCENTRICITY":0.0001996,"INCLINATION":87.9096,"RA_OF_ASC_NODE":236.7173,"ARG_OF_PERICENTER":91.6524,"MEAN_ANOMALY":268.4835,"EPHEMERIS_TYPE":0,"CLASSIFICATION_TYPE":"U","NORAD_CAT_ID":48979,"ELEMENT_SET_NO":999,"REV_AT_EPOCH":23440,"BSTAR":8.8801e-05,"MEAN_MOTION_DOT":4.7e-07,"MEAN_MOTION_DDOT":0.0},{"OBJECT_NAME":"ONEWEB-0262","OBJECT_ID":"2021-060P","EPOCH":"2026-05-08T07:01:57.824832","MEAN_MOTION":13.16595205,"ECCENTRICITY":0.0001659,"INCLINATION":87.9097,"RA_OF_ASC_NODE":236.6908,"ARG_OF_PERICENTER":101.2603,"MEAN_ANOMALY":258.8714,"EPHEMERIS_TYPE":0,"CLASSIFICATION_TYPE":"U","NORAD_CAT_ID":48980,"ELEMENT_SET_NO":999,"REV_AT_EPOCH":23437,"BSTAR":0.00031483,"MEAN_MOTION_DOT":1.33e-06,"MEAN_MOTION_DDOT":0.0},{"OBJECT_NAME":"ONEWEB-0263","OBJECT_ID":"2021-060Q","EPOCH":"2026-05-08T05:58:05.632320","MEAN_MOTION":13.16595921,"ECCENTRICITY":0.0001857,"INCLINATION":87.9096,"RA_OF_ASC_NODE":236.711,"ARG_OF_PERICENTER":91.0141,"MEAN_ANOMALY":269.1202,"EPHEMERIS_TYPE":0,"CLASSIFICATION_TYPE":"U","NORAD_CAT_ID":48981,"ELEMENT_SET_NO":999,"REV_AT_EPOCH":23433,"BSTAR":-0.00013588,"MEAN_MOTION_DOT":-3.9e-07,"MEAN_MOTION_DDOT":0.0},{"OBJECT_NAME":"ONEWEB-0264","OBJECT_ID":"2021-060R","EPOCH":"2026-05-08T06:51:40.895136","MEAN_MOTION":13.16596014,"ECCENTRICITY":0.0002103,"INCLINATION":87.9096,"RA_OF_ASC_NODE":236.7075,"ARG_OF_PERICENTER":97.0356,"MEAN_ANOMALY":263.1014,"EPHEMERIS_TYPE":0,"CLASSIFICATION_TYPE":"U","NORAD_CAT_ID":48982,"ELEMENT_SET_NO":999,"REV_AT_EPOCH":23434,"BSTAR":0.00031648,"MEAN_MOTION_DOT":1.34e-06,"MEAN_MOTION_DDOT":0.0},{"OBJECT_NAME":"ONEWEB-0266","OBJECT_ID":"2021-060T","EPOCH":"2026-05-08T05:33:02.115072","MEAN_MOTION":13.16596018,"ECCENTRICITY":0.0001903,"INCLINATION":87.9098,"RA_OF_ASC_NODE":236.7081,"ARG_OF_PERICENTER":104.5423,"MEAN_ANOMALY":255.5919,"EPHEMERIS_TYPE":0,"CLASSIFICATION_TYPE":"U","NORAD_CAT_ID":48984,"ELEMENT_SET_NO":999,"REV_AT_EPOCH":23432,"BSTAR":0.00020948,"MEAN_MOTION_DOT":9.3e-07,"MEAN_MOTION_DDOT":0.0},{"OBJECT_NAME":"ONEWEB-0267","OBJECT_ID":"2021-060U","EPOCH":"2026-05-08T05:48:58.780800","MEAN_MOTION":13.16596167,"ECCENTRICITY":0.0001975,"INCLINATION":87.9098,"RA_OF_ASC_NODE":236.702,"ARG_OF_PERICENTER":95.145,"MEAN_ANOMALY":264.9907,"EPHEMERIS_TYPE":0,"CLASSIFICATION_TYPE":"U","NORAD_CAT_ID":48985,"ELEMENT_SET_NO":999,"REV_AT_EPOCH":23433,"BSTAR":-3.6508000000000004e-05,"MEAN_MOTION_DOT":-1e-08,"MEAN_MOTION_DDOT":0.0},{"OBJECT_NAME":"ONEWEB-0268","OBJECT_ID":"2021-060V","EPOCH":"2026-05-08T06:52:50.406528","MEAN_MOTION":13.16594034,"ECCENTRICITY":0.0002074,"INCLINATION":87.9099,"RA_OF_ASC_NODE":236.7033,"ARG_OF_PERICENTER":102.0132,"MEAN_ANOMALY":258.1232,"EPHEMERIS_TYPE":0,"CLASSIFICATION_TYPE":"U","NORAD_CAT_ID":48986,"ELEMENT_SET_NO":999,"REV_AT_EPOCH":23460,"BSTAR":0.00041810999999999997,"MEAN_MOTION_DOT":1.73e-06,"MEAN_MOTION_DDOT":0.0},{"OBJECT_NAME":"ONEWEB-0269","OBJECT_ID":"2021-060W","EPOCH":"2026-05-08T06:25:29.186688","MEAN_MOTION":13.1659498,"ECCENTRICITY":0.0002108,"INCLINATION":87.9086,"RA_OF_ASC_NODE":236.7142,"ARG_OF_PERICENTER":105.8735,"MEAN_ANOMALY":254.2629,"EPHEMERIS_TYPE":0,"CLASSIFICATION_TYPE":"U","NORAD_CAT_ID":48987,"ELEMENT_SET_NO":999,"REV_AT_EPOCH":23437,"BSTAR":0.0001674,"MEAN_MOTION_DOT":7.7e-07,"MEAN_MOTION_DDOT":0.0},{"OBJECT_NAME":"ONEWEB-0270","OBJECT_ID":"2021-060X","EPOCH":"2026-05-08T06:50:33.958464","MEAN_MOTION":13.16595148,"ECCENTRICITY":0.0001718,"INCLINATION":87.91,"RA_OF_ASC_NODE":236.7054,"ARG_OF_PERICENTER":92.0427,"MEAN_ANOMALY":268.0901,"EPHEMERIS_TYPE":0,"CLASSIFICATION_TYPE":"U","NORAD_CAT_ID":48988,"ELEMENT_SET_NO":999,"REV_AT_EPOCH":23441,"BSTAR":7.5226e-05,"MEAN_MOTION_DOT":4.2e-07,"MEAN_MOTION_DDOT":0.0},{"OBJECT_NAME":"ONEWEB-0271","OBJECT_ID":"2021-060Y","EPOCH":"2026-05-08T06:32:19.699872","MEAN_MOTION":13.16595075,"ECCENTRICITY":0.0001878,"INCLINATION":87.9096,"RA_OF_ASC_NODE":236.6987,"ARG_OF_PERICENTER":93.4724,"MEAN_ANOMALY":266.6622,"EPHEMERIS_TYPE":0,"CLASSIFICATION_TYPE":"U","NORAD_CAT_ID":48989,"ELEMENT_SET_NO":999,"REV_AT_EPOCH":23441,"BSTAR":0.00025951,"MEAN_MOTION_DOT":1.12e-06,"MEAN_MOTION_DDOT":0.0},{"OBJECT_NAME":"ONEWEB-0272","OBJECT_ID":"2021-060Z","EPOCH":"2026-05-08T07:04:14.348928","MEAN_MOTION":13.16594292,"ECCENTRICITY":0.0002225,"INCLINATION":87.9098,"RA_OF_ASC_NODE":236.7054,"ARG_OF_PERICENTER":98.0568,"MEAN_ANOMALY":262.0816,"EPHEMERIS_TYPE":0,"CLASSIFICATION_TYPE":"U","NORAD_CAT_ID":48990,"ELEMENT_SET_NO":999,"REV_AT_EPOCH":23436,"BSTAR":0.00035192000000000003,"MEAN_MOTION_DOT":1.47e-06,"MEAN_MOTION_DDOT":0.0},{"OBJECT_NAME":"ONEWEB-0273","OBJECT_ID":"2021-060AA","EPOCH":"2026-05-08T05:46:43.862016","MEAN_MOTION":13.16595041,"ECCENTRICITY":0.000187,"INCLINATION":87.91,"RA_OF_ASC_NODE":236.7147,"ARG_OF_PERICENTER":97.3062,"MEAN_ANOMALY":262.8282,"EPHEMERIS_TYPE":0,"CLASSIFICATION_TYPE":"U","NORAD_CAT_ID":48991,"ELEMENT_SET_NO":999,"REV_AT_EPOCH":23433,"BSTAR":-4.1907000000000004e-05,"MEAN_MOTION_DOT":-3e-08,"MEAN_MOTION_DDOT":0.0},{"OBJECT_NAME":"ONEWEB-0274","OBJECT_ID":"2021-060AB","EPOCH":"2026-05-08T06:23:11.666400","MEAN_MOTION":13.16594504,"ECCENTRICITY":0.0002253,"INCLINATION":87.9085,"RA_OF_ASC_NODE":236.7168,"ARG_OF_PERICENTER":99.5737,"MEAN_ANOMALY":260.5649,"EPHEMERIS_TYPE":0,"CLASSIFICATION_TYPE":"U","NORAD_CAT_ID":48992,"ELEMENT_SET_NO":999,"REV_AT_EPOCH":23437,"BSTAR":9.8751e-05,"MEAN_MOTION_DOT":5.1e-07,"MEAN_MOTION_DDOT":0.0},{"OBJECT_NAME":"ONEWEB-0275","OBJECT_ID":"2021-060AC","EPOCH":"2026-05-08T06:07:13.138752","MEAN_MOTION":13.16596068,"ECCENTRICITY":0.0002018,"INCLINATION":87.9097,"RA_OF_ASC_NODE":236.7039,"ARG_OF_PERICENTER":99.0778,"MEAN_ANOMALY":261.0581,"EPHEMERIS_TYPE":0,"CLASSIFICATION_TYPE":"U","NORAD_CAT_ID":48993,"ELEMENT_SET_NO":999,"REV_AT_EPOCH":23430,"BSTAR":-7.037400000000001e-06,"MEAN_MOTION_DOT":1e-07,"MEAN_MOTION_DDOT":0.0}]